[{"OBJECT_NAME":"STARLINK-30498","OBJECT_ID":"2023-151H","EPOCH":"2026-03-09T22:00:01.999584","MEAN_MOTION":15.27563001,"ECCENTRICITY":0.00018388,"INCLINATION":43.0024,"RA_OF_ASC_NODE":334.6781,"ARG_OF_PERICENTER":252.4444,"MEAN_ANOMALY":31.6341,"EPHEMERIS_TYPE":0,"CLASSIFICATION_TYPE":"U","NORAD_CAT_ID":57971,"ELEMENT_SET_NO":999,"REV_AT_EPOCH":578,"BSTAR":0.00046944819,"MEAN_MOTION_DOT":0.00012672,"MEAN_MOTION_DDOT":0},{"OBJECT_NAME":"TRANSPORTER-12 OBJECT BA","OBJECT_ID":"2025-009BA","EPOCH":"2026-03-09T16:49:42.568896","MEAN_MOTION":15.27214003,"ECCENTRICITY":4.03e-5,"INCLINATION":97.3985,"RA_OF_ASC_NODE":151.139,"ARG_OF_PERICENTER":234.6623,"MEAN_ANOMALY":125.4579,"EPHEMERIS_TYPE":0,"CLASSIFICATION_TYPE":"U","NORAD_CAT_ID":62657,"ELEMENT_SET_NO":999,"REV_AT_EPOCH":6373,"BSTAR":0.00042732654,"MEAN_MOTION_DOT":0.0001133,"MEAN_MOTION_DDOT":0}]
